{
  "links" : {
    "next" : "https://api.nasa.gov/neo/rest/v1/feed?start_date=2007-11-23&end_date=2007-11-23&detailed=true&api_key=t0TVs3DtDT2H8Oy2Zy8m2eVrNsAVKAexjcZXUckd",
    "prev" : "https://api.nasa.gov/neo/rest/v1/feed?start_date=2007-11-21&end_date=2007-11-21&detailed=true&api_key=t0TVs3DtDT2H8Oy2Zy8m2eVrNsAVKAexjcZXUckd",
    "self" : "https://api.nasa.gov/neo/rest/v1/feed?start_date=2007-11-22&end_date=2007-11-22&detailed=true&api_key=t0TVs3DtDT2H8Oy2Zy8m2eVrNsAVKAexjcZXUckd"
  },
  "element_count" : 7,
  "near_earth_objects" : {
    "2007-11-22" : [ {
      "links" : {
        "self" : "https://api.nasa.gov/neo/rest/v1/neo/3398089?api_key=t0TVs3DtDT2H8Oy2Zy8m2eVrNsAVKAexjcZXUckd"
      },
      "neo_reference_id" : "3398089",
      "name" : "(2007 YG)",
      "nasa_jpl_url" : "http://ssd.jpl.nasa.gov/sbdb.cgi?sstr=3398089",
      "absolute_magnitude_h" : 23.1,
      "estimated_diameter" : {
        "kilometers" : {
          "estimated_diameter_min" : 0.063760979,
          "estimated_diameter_max" : 0.1425738833
        },
        "meters" : {
          "estimated_diameter_min" : 63.7609789875,
          "estimated_diameter_max" : 142.5738833281
        },
        "miles" : {
          "estimated_diameter_min" : 0.0396192233,
          "estimated_diameter_max" : 0.0885912765
        },
        "feet" : {
          "estimated_diameter_min" : 209.1895703015,
          "estimated_diameter_max" : 467.7620993781
        }
      },
      "is_potentially_hazardous_asteroid" : false,
      "close_approach_data" : [ {
        "close_approach_date" : "2007-11-22",
        "epoch_date_close_approach" : 1195718400000,
        "relative_velocity" : {
          "kilometers_per_second" : "11.3229842396",
          "kilometers_per_hour" : "40762.7432626594",
          "miles_per_hour" : "25328.383445623"
        },
        "miss_distance" : {
          "astronomical" : "0.1168538236",
          "lunar" : "45.4561386108",
          "kilometers" : "17481084",
          "miles" : "10862242"
        },
        "orbiting_body" : "Earth"
      } ],
      "orbital_data" : {
        "orbit_id" : "11",
        "orbit_determination_date" : "2017-04-06 09:04:54",
        "orbit_uncertainty" : "8",
        "minimum_orbit_intersection" : ".040644",
        "jupiter_tisserand_invariant" : "4.978",
        "epoch_osculation" : "2454455.5",
        "eccentricity" : ".4114158224931179",
        "semi_major_axis" : "1.270554211593477",
        "inclination" : "11.51930232332047",
        "ascending_node_longitude" : "265.7437492323634",
        "orbital_period" : "523.1042241585183",
        "perihelion_distance" : ".7478281056086515",
        "perihelion_argument" : "71.09183029085611",
        "aphelion_distance" : "1.793280317578302",
        "perihelion_time" : "2454366.150372748400",
        "mean_anomaly" : "61.49035760955478",
        "mean_motion" : ".6881993747596039",
        "equinox" : "J2000"
      }
    }, {
      "links" : {
        "self" : "https://api.nasa.gov/neo/rest/v1/neo/2137099?api_key=t0TVs3DtDT2H8Oy2Zy8m2eVrNsAVKAexjcZXUckd"
      },
      "neo_reference_id" : "2137099",
      "name" : "137099 (1998 YW3)",
      "nasa_jpl_url" : "http://ssd.jpl.nasa.gov/sbdb.cgi?sstr=2137099",
      "absolute_magnitude_h" : 18.2,
      "estimated_diameter" : {
        "kilometers" : {
          "estimated_diameter_min" : 0.6089126221,
          "estimated_diameter_max" : 1.3615700154
        },
        "meters" : {
          "estimated_diameter_min" : 608.9126221057,
          "estimated_diameter_max" : 1361.5700153859
        },
        "miles" : {
          "estimated_diameter_min" : 0.3783606449,
          "estimated_diameter_max" : 0.846040122
        },
        "feet" : {
          "estimated_diameter_min" : 1997.7448871092,
          "estimated_diameter_max" : 4467.0933692788
        }
      },
      "is_potentially_hazardous_asteroid" : false,
      "close_approach_data" : [ {
        "close_approach_date" : "2007-11-22",
        "epoch_date_close_approach" : 1195718400000,
        "relative_velocity" : {
          "kilometers_per_second" : "25.3573501935",
          "kilometers_per_hour" : "91286.4606966716",
          "miles_per_hour" : "56721.8566478847"
        },
        "miss_distance" : {
          "astronomical" : "0.4982928898",
          "lunar" : "193.8359375",
          "kilometers" : "74543560",
          "miles" : "46319220"
        },
        "orbiting_body" : "Earth"
      } ],
      "orbital_data" : {
        "orbit_id" : "69",
        "orbit_determination_date" : "2017-04-06 09:27:56",
        "orbit_uncertainty" : "0",
        "minimum_orbit_intersection" : ".388359",
        "jupiter_tisserand_invariant" : "5.445",
        "epoch_osculation" : "2458000.5",
        "eccentricity" : ".4626233426488658",
        "semi_major_axis" : "1.100009023461051",
        "inclination" : "28.79291804959249",
        "ascending_node_longitude" : "94.2846531083093",
        "orbital_period" : "421.3983186368112",
        "perihelion_distance" : ".591119172083585",
        "perihelion_argument" : "194.8272082028749",
        "aphelion_distance" : "1.608898874838517",
        "perihelion_time" : "2458154.779546160167",
        "mean_anomaly" : "228.1991973832985",
        "mean_motion" : ".8542986150599042",
        "equinox" : "J2000"
      }
    }, {
      "links" : {
        "self" : "https://api.nasa.gov/neo/rest/v1/neo/3410534?api_key=t0TVs3DtDT2H8Oy2Zy8m2eVrNsAVKAexjcZXUckd"
      },
      "neo_reference_id" : "3410534",
      "name" : "(2008 JP24)",
      "nasa_jpl_url" : "http://ssd.jpl.nasa.gov/sbdb.cgi?sstr=3410534",
      "absolute_magnitude_h" : 26.7,
      "estimated_diameter" : {
        "kilometers" : {
          "estimated_diameter_min" : 0.0121494041,
          "estimated_diameter_max" : 0.0271668934
        },
        "meters" : {
          "estimated_diameter_min" : 12.14940408,
          "estimated_diameter_max" : 27.1668934089
        },
        "miles" : {
          "estimated_diameter_min" : 0.0075492874,
          "estimated_diameter_max" : 0.0168807197
        },
        "feet" : {
          "estimated_diameter_min" : 39.8602508817,
          "estimated_diameter_max" : 89.1302305717
        }
      },
      "is_potentially_hazardous_asteroid" : false,
      "close_approach_data" : [ {
        "close_approach_date" : "2007-11-22",
        "epoch_date_close_approach" : 1195718400000,
        "relative_velocity" : {
          "kilometers_per_second" : "5.5369027248",
          "kilometers_per_hour" : "19932.8498092425",
          "miles_per_hour" : "12385.4977050818"
        },
        "miss_distance" : {
          "astronomical" : "0.3399879692",
          "lunar" : "132.2553253174",
          "kilometers" : "50861476",
          "miles" : "31603856"
        },
        "orbiting_body" : "Earth"
      } ],
      "orbital_data" : {
        "orbit_id" : "9",
        "orbit_determination_date" : "2017-04-06 09:03:26",
        "orbit_uncertainty" : "6",
        "minimum_orbit_intersection" : ".00139323",
        "jupiter_tisserand_invariant" : "5.108",
        "epoch_osculation" : "2458000.5",
        "eccentricity" : ".2772507959624246",
        "semi_major_axis" : "1.248622217090334",
        "inclination" : "1.152998955705989",
        "ascending_node_longitude" : "41.39305411030883",
        "orbital_period" : "509.6182992568961",
        "perihelion_distance" : ".9024407135456719",
        "perihelion_argument" : "125.2009524338781",
        "aphelion_distance" : "1.594803720634997",
        "perihelion_time" : "2458111.676712918065",
        "mean_anomaly" : "281.4635410289147",
        "mean_motion" : ".7064110541653171",
        "equinox" : "J2000"
      }
    } ]
  }
}